{
  "links" : {
    "next" : "https://api.nasa.gov/neo/rest/v1/neo/browse?page=42&size=20&api_key=jqAGvNAwUIBu4fl9FSOjdm3V4F7hIglRzI6pdX9d",
    "prev" : "https://api.nasa.gov/neo/rest/v1/neo/browse?page=40&size=20&api_key=jqAGvNAwUIBu4fl9FSOjdm3V4F7hIglRzI6pdX9d",
    "self" : "https://api.nasa.gov/neo/rest/v1/neo/browse?page=41&size=20&api_key=jqAGvNAwUIBu4fl9FSOjdm3V4F7hIglRzI6pdX9d"
  },
  "page" : {
    "size" : 20,
    "total_elements" : 20750,
    "total_pages" : 1038,
    "number" : 41
  },
  "near_earth_objects" : [ {
    "links" : {
      "self" : "https://api.nasa.gov/neo/rest/v1/neo/3788121?api_key=jqAGvNAwUIBu4fl9FSOjdm3V4F7hIglRzI6pdX9d"
    },
    "neo_reference_id" : "3788121",
    "name" : "(2017 UE8)",
    "designation" : "2017 UE8",
    "nasa_jpl_url" : "http://ssd.jpl.nasa.gov/sbdb.cgi?sstr=3788121",
    "absolute_magnitude_h" : 24.1,
    "estimated_diameter" : {
      "kilometers" : {
        "estimated_diameter_min" : 0.040230458,
        "estimated_diameter_max" : 0.0899580388
      },
      "meters" : {
        "estimated_diameter_min" : 40.2304579834,
        "estimated_diameter_max" : 89.9580388169
      },
      "miles" : {
        "estimated_diameter_min" : 0.0249980399,
        "estimated_diameter_max" : 0.0558973165
      },
      "feet" : {
        "estimated_diameter_min" : 131.9896957704,
        "estimated_diameter_max" : 295.1379320721
      }
    },
    "is_potentially_hazardous_asteroid" : false,
    "close_approach_data" : [ {
      "close_approach_date" : "2017-11-11",
      "epoch_date_close_approach" : 1510387200000,
      "relative_velocity" : {
        "kilometers_per_second" : "7.686044569",
        "kilometers_per_hour" : "27669.7604484122",
        "miles_per_hour" : "17192.9130964037"
      },
      "miss_distance" : {
        "astronomical" : "0.1847252305",
        "lunar" : "71.8581161499",
        "kilometers" : "27634500",
        "miles" : "17171282"
      },
      "orbiting_body" : "Earth"
    } ],
    "orbital_data" : {
      "orbit_id" : "1",
      "orbit_determination_date" : "2017-10-29 10:31:07",
      "first_observation_date" : "2017-10-27",
      "last_observation_date" : "2017-10-29",
      "data_arc_in_days" : 2,
      "observations_used" : 22,
      "orbit_uncertainty" : "9",
      "minimum_orbit_intersection" : ".182628",
      "jupiter_tisserand_invariant" : "3.219",
      "epoch_osculation" : "2458054.5",
      "eccentricity" : ".5493031783070077",
      "semi_major_axis" : "2.494435188600482",
      "inclination" : "11.63709404336312",
      "ascending_node_longitude" : "21.55166096676205",
      "orbital_period" : "1438.986645488676",
      "perihelion_distance" : "1.124234011421397",
      "perihelion_argument" : "45.17639225758194",
      "aphelion_distance" : "3.864636365779567",
      "perihelion_time" : "2458087.329397202997",
      "mean_anomaly" : "351.7868709691427",
      "mean_motion" : ".2501760534947459",
      "equinox" : "J2000",
      "orbit_class" : {
        "orbit_class_type" : "AMO",
        "orbit_class_range" : "1.017 AU < q (perihelion) < 1.3 AU",
        "orbit_class_description" : "Near-Earth asteroid orbits similar to that of 1221 Amor"
      }
    },
    "is_sentry_object" : false
  }, {
    "links" : {
      "self" : "https://api.nasa.gov/neo/rest/v1/neo/3789475?api_key=jqAGvNAwUIBu4fl9FSOjdm3V4F7hIglRzI6pdX9d"
    },
    "neo_reference_id" : "3789475",
    "name" : "(2017 WN1)",
    "designation" : "2017 WN1",
    "nasa_jpl_url" : "http://ssd.jpl.nasa.gov/sbdb.cgi?sstr=3789475",
    "absolute_magnitude_h" : 24.0,
    "estimated_diameter" : {
      "kilometers" : {
        "estimated_diameter_min" : 0.0421264611,
        "estimated_diameter_max" : 0.0941976306
      },
      "meters" : {
        "estimated_diameter_min" : 42.1264610556,
        "estimated_diameter_max" : 94.1976305719
      },
      "miles" : {
        "estimated_diameter_min" : 0.0261761612,
        "estimated_diameter_max" : 0.0585316759
      },
      "feet" : {
        "estimated_diameter_min" : 138.2101784897,
        "estimated_diameter_max" : 309.0473542854
      }
    },
    "is_potentially_hazardous_asteroid" : false,
    "close_approach_data" : [ {
      "close_approach_date" : "2017-11-12",
      "epoch_date_close_approach" : 1510473600000,
      "relative_velocity" : {
        "kilometers_per_second" : "20.1839060456",
        "kilometers_per_hour" : "72662.06176403",
        "miles_per_hour" : "45149.3794333219"
      },
      "miss_distance" : {
        "astronomical" : "0.0477979886",
        "lunar" : "18.5934181213",
        "kilometers" : "7150477.5",
        "miles" : "4443100.5"
      },
      "orbiting_body" : "Earth"
    } ],
    "orbital_data" : {
      "orbit_id" : "5",
      "orbit_determination_date" : "2017-12-02 06:16:59",
      "first_observation_date" : "2017-11-18",
      "last_observation_date" : "2017-11-29",
      "data_arc_in_days" : 11,
      "observations_used" : 50,
      "orbit_uncertainty" : "8",
      "minimum_orbit_intersection" : ".0430906",
      "jupiter_tisserand_invariant" : "3.568",
      "epoch_osculation" : "2458077.5",
      "eccentricity" : ".5953298588102547",
      "semi_major_axis" : "1.938719038081786",
      "inclination" : "25.67990141214963",
      "ascending_node_longitude" : "234.9650280214443",
      "orbital_period" : "985.9859796205985",
      "perihelion_distance" : ".7845417068678034",
      "perihelion_argument" : "108.4088978592876",
      "aphelion_distance" : "3.092896369295768",
      "perihelion_time" : "2458024.628703893999",
      "mean_anomaly" : "19.30419599423148",
      "mean_motion" : ".3651167536261782",
      "equinox" : "J2000",
      "orbit_class" : {
        "orbit_class_type" : "APO",
        "orbit_class_range" : "a (semi-major axis) > 1.0 AU; q (perihelion) < 1.017 AU",
        "orbit_class_description" : "Near-Earth asteroid orbits which cross the Earth’s orbit similar to that of 1862 Apollo"
      }
    },
    "is_sentry_object" : false
  }, {
    "links" : {
      "self" : "https://api.nasa.gov/neo/rest/v1/neo/3791249?api_key=jqAGvNAwUIBu4fl9FSOjdm3V4F7hIglRzI6pdX9d"
    },
    "neo_reference_id" : "3791249",
    "name" : "(2017 XK1)",
    "designation" : "2017 XK1",
    "nasa_jpl_url" : "http://ssd.jpl.nasa.gov/sbdb.cgi?sstr=3791249",
    "absolute_magnitude_h" : 25.2,
    "estimated_diameter" : {
      "kilometers" : {
        "estimated_diameter_min" : 0.0242412481,
        "estimated_diameter_max" : 0.0542050786
      },
      "meters" : {
        "estimated_diameter_min" : 24.2412481101,
        "estimated_diameter_max" : 54.2050786336
      },
      "miles" : {
        "estimated_diameter_min" : 0.0150628086,
        "estimated_diameter_max" : 0.0336814639
      },
      "feet" : {
        "estimated_diameter_min" : 79.5316564495,
        "estimated_diameter_max" : 177.8381901842
      }
    },
    "is_potentially_hazardous_asteroid" : false,
    "close_approach_data" : [ {
      "close_approach_date" : "1936-12-09",
      "epoch_date_close_approach" : -1043337600000,
      "relative_velocity" : {
        "kilometers_per_second" : "13.335875372",
        "kilometers_per_hour" : "48009.151339088",
        "miles_per_hour" : "29831.0196195572"
      },
      "miss_distance" : {
        "astronomical" : "0.0274906595",
        "lunar" : "10.6938657761",
        "kilometers" : "4112544",
        "miles" : "2555416.5"
      },
      "orbiting_body" : "Earth"
    }, {
      "close_approach_date" : "2017-12-15",
      "epoch_date_close_approach" : 1513324800000,
      "relative_velocity" : {
        "kilometers_per_second" : "12.2342130459",
        "kilometers_per_hour" : "44043.1669652936",
        "miles_per_hour" : "27366.711162407"
      },
      "miss_distance" : {
        "astronomical" : "0.0157839714",
        "lunar" : "6.1399645805",
        "kilometers" : "2361248.5",
        "miles" : "1467211.75"
      },
      "orbiting_body" : "Earth"
    } ],
    "orbital_data" : {
      "orbit_id" : "5",
      "orbit_determination_date" : "2017-12-15 06:26:34",
      "first_observation_date" : "2017-12-07",
      "last_observation_date" : "2017-12-15",
      "data_arc_in_days" : 8,
      "observations_used" : 58,
      "orbit_uncertainty" : "8",
      "minimum_orbit_intersection" : ".00128486",
      "jupiter_tisserand_invariant" : "3.633",
      "epoch_osculation" : "2458096.5",
      "eccentricity" : ".5624191166418868",
      "semi_major_axis" : "1.983184918407634",
      "inclination" : "8.771258860347684",
      "ascending_node_longitude" : "260.9079288486087",
      "orbital_period" : "1020.101164856793",
      "perihelion_distance" : ".8678038084593002",
      "perihelion_argument" : "228.43590851",
      "aphelion_distance" : "3.098566028355968",
      "perihelion_time" : "2458136.263910236919",
      "mean_anomaly" : "345.9670705431452",
      "mean_motion" : ".352906174801338",
      "equinox" : "J2000",
      "orbit_class" : {
        "orbit_class_type" : "APO",
        "orbit_class_range" : "a (semi-major axis) > 1.0 AU; q (perihelion) < 1.017 AU",
        "orbit_class_description" : "Near-Earth asteroid orbits which cross the Earth’s orbit similar to that of 1862 Apollo"
      }
    },
    "is_sentry_object" : false
  } ]
}